{"type": "FeatureCollection", "features": [ {"type": "Feature", "properties": {"norad_id": 66919, "name": "HULIANWANG DIGUI-109", "group": "last-30-days", "lat": -12.677607606501638, "lon": -99.71682795214579, "alt_km": 887.0001386082522, "timestamp": "2025-12-24T11:32:58.720400+00:00", "meta": {"OBJECT_NAME": "HULIANWANG DIGUI-109", "OBJECT_ID": "2025-285E", "EPOCH": "2025-12-24T05:29:27.148416", "MEAN_MOTION": 14.03727586, "ECCENTRICITY": 0.0007922, "INCLINATION": 50.0076, "RA_OF_ASC_NODE": 70.4274, "ARG_OF_PERICENTER": 330.7129, "MEAN_ANOMALY": 29.3331, "EPHEMERIS_TYPE": 0, "CLASSIFICATION_TYPE": "U", "NORAD_CAT_ID": 66919, "ELEMENT_SET_NO": 999, "REV_AT_EPOCH": 252, "BSTAR": 0.00011843, "MEAN_MOTION_DOT": 3.6e-07, "MEAN_MOTION_DDOT": 0}, "tle": {"line1": "1 66919U 25285E   25358.22878644  .00000036  00000+0  11843-3 0  9995", "line2": "2 66919  50.0076  70.4274 0007922 330.7129  29.3331 14.03727586  2523"}}, "geometry": {"type": "Point", "coordinates": [-99.71682795214579, -12.677607606501638]}}, {"type": "Feature", "properties": {"norad_id": 66920, "name": "HULIANWANG DIGUI-110", "group": "last-30-days", "lat": -15.51053571510435, "lon": -97.13166533818325, "alt_km": 885.9091909654098, "timestamp": "2025-12-24T11:32:58.720412+00:00", "meta": {"OBJECT_NAME": "HULIANWANG DIGUI-110", "OBJECT_ID": "2025-285F", "EPOCH": "2025-12-24T05:28:22.204128", "MEAN_MOTION": 14.03683783, "ECCENTRICITY": 0.0005633, "INCLINATION": 50.012, "RA_OF_ASC_NODE": 70.4307, "ARG_OF_PERICENTER": 327.8066, "MEAN_ANOMALY": 32.2493, "EPHEMERIS_TYPE": 0, "CLASSIFICATION_TYPE": "U", "NORAD_CAT_ID": 66920, "ELEMENT_SET_NO": 999, "REV_AT_EPOCH": 252, "BSTAR": 0.00010967, "MEAN_MOTION_DOT": 2.2e-07, "MEAN_MOTION_DDOT": 0}, "tle": {"line1": "1 66920U 25285F   25358.22803477  .00000022  00000+0  10967-3 0  9990", "line2": "2 66920  50.0120  70.4307 0005633 327.8066  32.2493 14.03683783  2528"}}, "geometry": {"type": "Point", "coordinates": [-97.13166533818325, -15.51053571510435]}}, {"type": "Feature", "properties": {"norad_id": 66921, "name": "HULIANWANG DIGUI-111", "group": "last-30-days", "lat": -18.318111395678436, "lon": -94.47203718569423, "alt_km": 886.8384374411189, "timestamp": "2025-12-24T11:32:58.720423+00:00", "meta": {"OBJECT_NAME": "HULIANWANG DIGUI-111", "OBJECT_ID": "2025-285G", "EPOCH": "2025-12-24T05:27:16.401024", "MEAN_MOTION": 14.03633335, "ECCENTRICITY": 0.0006715, "INCLINATION": 50.0124, "RA_OF_ASC_NODE": 70.4301, "ARG_OF_PERICENTER": 331.6097, "MEAN_ANOMALY": 28.4441, "EPHEMERIS_TYPE": 0, "CLASSIFICATION_TYPE": "U", "NORAD_CAT_ID": 66921, "ELEMENT_SET_NO": 999, "REV_AT_EPOCH": 252, "BSTAR": 0.00011193, "MEAN_MOTION_DOT": 2.5e-07, "MEAN_MOTION_DDOT": 0}, "tle": {"line1": "1 66921U 25285G   25358.22727316  .00000025  00000+0  11193-3 0  9993", "line2": "2 66921  50.0124  70.4301 0006715 331.6097  28.4441 14.03633335  2524"}}, "geometry": {"type": "Point", "coordinates": [-94.47203718569423, -18.318111395678436]}}, {"type": "Feature", "properties": {"norad_id": 66922, "name": "HULIANWANG DIGUI-112", "group": "last-30-days", "lat": -22.356210478818213, "lon": -90.42817732534006, "alt_km": 887.3256128666108, "timestamp": "2025-12-24T11:32:58.720434+00:00", "meta": {"OBJECT_NAME": "HULIANWANG DIGUI-112", "OBJECT_ID": "2025-285H", "EPOCH": "2025-12-24T05:25:42.315744", "MEAN_MOTION": 14.0366335, "ECCENTRICITY": 0.0006532, "INCLINATION": 50.0096, "RA_OF_ASC_NODE": 70.4165, "ARG_OF_PERICENTER": 342.2388, "MEAN_ANOMALY": 17.8287, "EPHEMERIS_TYPE": 0, "CLASSIFICATION_TYPE": "U", "NORAD_CAT_ID": 66922, "ELEMENT_SET_NO": 999, "REV_AT_EPOCH": 252, "BSTAR": 0.00011926, "MEAN_MOTION_DOT": 3.7e-07, "MEAN_MOTION_DDOT": 0}, "tle": {"line1": "1 66922U 25285H   25358.22618421  .00000037  00000+0  11926-3 0  9997", "line2": "2 66922  50.0096  70.4165 0006532 342.2388  17.8287 14.03663350  2529"}}, "geometry": {"type": "Point", "coordinates": [-90.42817732534006, -22.356210478818213]}}, {"type": "Feature", "properties": {"norad_id": 66923, "name": "HULIANWANG DIGUI-113", "group": "last-30-days", "lat": -26.72899382732846, "lon": -85.62847499122095, "alt_km": 886.2439673514364, "timestamp": "2025-12-24T11:32:58.720446+00:00", "meta": {"OBJECT_NAME": "HULIANWANG DIGUI-113", "OBJECT_ID": "2025-285J", "EPOCH": "2025-12-24T05:23:57.229152", "MEAN_MOTION": 14.03701269, "ECCENTRICITY": 0.0005136, "INCLINATION": 50.0096, "RA_OF_ASC_NODE": 70.4116, "ARG_OF_PERICENTER": 336.7773, "MEAN_ANOMALY": 23.2899, "EPHEMERIS_TYPE": 0, "CLASSIFICATION_TYPE": "U", "NORAD_CAT_ID": 66923, "ELEMENT_SET_NO": 999, "REV_AT_EPOCH": 252, "BSTAR": 0.00011621, "MEAN_MOTION_DOT": 3.2e-07, "MEAN_MOTION_DDOT": 0}, "tle": {"line1": "1 66923U 25285J   25358.22496793  .00000032  00000+0  11621-3 0  9991", "line2": "2 66923  50.0096  70.4116 0005136 336.7773  23.2899 14.03701269  2523"}}, "geometry": {"type": "Point", "coordinates": [-85.62847499122095, -26.72899382732846]}}, {"type": "Feature", "properties": {"norad_id": 66924, "name": "CZ-8A R/B", "group": "last-30-days", "lat": 46.876720281904326, "lon": 129.84469366569212, "alt_km": 761.4965687314325, "timestamp": "2025-12-24T11:32:58.720462+00:00", "meta": {"OBJECT_NAME": "CZ-8A R/B", "OBJECT_ID": "2025-285K", "EPOCH": "2025-12-23T15:05:29.547744", "MEAN_MOTION": 14.30505924, "ECCENTRICITY": 0.01192463, "INCLINATION": 50.0083, "RA_OF_ASC_NODE": 69.8031, "ARG_OF_PERICENTER": 145.1331, "MEAN_ANOMALY": 215.7469, "EPHEMERIS_TYPE": 0, "CLASSIFICATION_TYPE": "U", "NORAD_CAT_ID": 66924, "ELEMENT_SET_NO": 999, "REV_AT_EPOCH": 248, "BSTAR": 5.5403296e-05, "MEAN_MOTION_DOT": -9e-08, "MEAN_MOTION_DDOT": 0}, "tle": {"line1": "1 66924U 25285K   25357.62881421 -.00000009  00000+0  55403-4 0  9993", "line2": "2 66924  50.0083  69.8031 0119246 145.1331 215.7469 14.30505924  2484"}}, "geometry": {"type": "Point", "coordinates": [129.84469366569212, 46.876720281904326]}}, {"type": "Feature", "properties": {"norad_id": 66925, "name": "STARLINK-35945", "group": "last-30-days", "lat": 52.599051180343096, "lon": 70.46716043528181, "alt_km": 362.15076557438806, "timestamp": "2025-12-24T11:32:58.720472+00:00", "meta": {"OBJECT_NAME": "STARLINK-35945", "OBJECT_ID": "2025-286A", "EPOCH": "2025-12-24T04:00:01.998720", "MEAN_MOTION": 15.67426028, "ECCENTRICITY": 0.0001426, "INCLINATION": 53.1594, "RA_OF_ASC_NODE": 353.318, "ARG_OF_PERICENTER": 78.9011, "MEAN_ANOMALY": 29.1285, "EPHEMERIS_TYPE": 0, "CLASSIFICATION_TYPE": "U", "NORAD_CAT_ID": 66925, "ELEMENT_SET_NO": 999, "REV_AT_EPOCH": 382, "BSTAR": -0.02018, "MEAN_MOTION_DOT": -0.01965777, "MEAN_MOTION_DDOT": 0}, "tle": {"line1": "1 66925U 25286A   25358.16668980 -.01965777  00000+0 -20180-1 0  9993", "line2": "2 66925  53.1594 353.3180 0001426  78.9011  29.1285 15.67426028  3820"}}, "geometry": {"type": "Point", "coordinates": [70.46716043528181, 52.599051180343096]}}, {"type": "Feature", "properties": {"norad_id": 66926, "name": "STARLINK-35942", "group": "last-30-days", "lat": 50.277833768398054, "lon": 56.26187232347011, "alt_km": 367.71100350442157, "timestamp": "2025-12-24T11:32:58.720483+00:00", "meta": {"OBJECT_NAME": "STARLINK-35942", "OBJECT_ID": "2025-286B", "EPOCH": "2025-12-24T04:00:01.998720", "MEAN_MOTION": 15.65706655, "ECCENTRICITY": 0.0001282, "INCLINATION": 53.1596, "RA_OF_ASC_NODE": 353.3328, "ARG_OF_PERICENTER": 81.796, "MEAN_ANOMALY": 19.0879, "EPHEMERIS_TYPE": 0, "CLASSIFICATION_TYPE": "U", "NORAD_CAT_ID": 66926, "ELEMENT_SET_NO": 999, "REV_AT_EPOCH": 382, "BSTAR": -0.022632, "MEAN_MOTION_DOT": -0.02043979, "MEAN_MOTION_DDOT": 0}, "tle": {"line1": "1 66926U 25286B   25358.16668980 -.02043979  00000+0 -22632-1 0  9990", "line2": "2 66926  53.1596 353.3328 0001282  81.7960  19.0879 15.65706655  3824"}}, "geometry": {"type": "Point", "coordinates": [56.26187232347011, 50.277833768398054]}}, {"type": "Feature", "properties": {"norad_id": 66927, "name": "STARLINK-35943", "group": "last-30-days", "lat": 50.9051743730593, "lon": 59.11705490460494, "alt_km": 367.5419547691463, "timestamp": "2025-12-24T11:32:58.720495+00:00", "meta": {"OBJECT_NAME": "STARLINK-35943", "OBJECT_ID": "2025-286C", "EPOCH": "2025-12-24T04:00:01.998720", "MEAN_MOTION": 15.6570949, "ECCENTRICITY": 0.000139, "INCLINATION": 53.1594, "RA_OF_ASC_NODE": 353.3287, "ARG_OF_PERICENTER": 80.693, "MEAN_ANOMALY": 22.106, "EPHEMERIS_TYPE": 0, "CLASSIFICATION_TYPE": "U", "NORAD_CAT_ID": 66927, "ELEMENT_SET_NO": 999, "REV_AT_EPOCH": 382, "BSTAR": -0.022674, "MEAN_MOTION_DOT": -0.0204757, "MEAN_MOTION_DDOT": 0}, "tle": {"line1": "1 66927U 25286C   25358.16668980 -.02047570  00000+0 -22674-1 0  9998", "line2": "2 66927  53.1594 353.3287 0001390  80.6930  22.1060 15.65709490  3829"}}, "geometry": {"type": "Point", "coordinates": [59.11705490460494, 50.9051743730593]}}, {"type": "Feature", "properties": {"norad_id": 66928, "name": "STARLINK-35944", "group": "last-30-days", "lat": 49.58234822856661, "lon": 53.485998342987266, "alt_km": 367.71679795559703, "timestamp": "2025-12-24T11:32:58.720506+00:00", "meta": {"OBJECT_NAME": "STARLINK-35944", "OBJECT_ID": "2025-286D", "EPOCH": "2025-12-24T04:00:01.998720", "MEAN_MOTION": 15.65704316, "ECCENTRICITY": 0.0001422, "INCLINATION": 53.1595, "RA_OF_ASC_NODE": 353.3363, "ARG_OF_PERICENTER": 78.2343, "MEAN_ANOMALY": 20.7358, "EPHEMERIS_TYPE": 0, "CLASSIFICATION_TYPE": "U", "NORAD_CAT_ID": 66928, "ELEMENT_SET_NO": 999, "REV_AT_EPOCH": 382, "BSTAR": -0.022635, "MEAN_MOTION_DOT": -0.02044133, "MEAN_MOTION_DDOT": 0}, "tle": {"line1": "1 66928U 25286D   25358.16668980 -.02044133  00000+0 -22635-1 0  9998", "line2": "2 66928  53.1595 353.3363 0001422  78.2343  20.7358 15.65704316  3829"}}, "geometry": {"type": "Point", "coordinates": [53.485998342987266, 49.58234822856661]}}]}